[{"OBJECT_NAME":"STARLINK-34268","OBJECT_ID":"2025-133AA","EPOCH":"2026-03-09T12:29:08.088000","MEAN_MOTION":15.30191923,"ECCENTRICITY":0.00014187,"INCLINATION":53.1597,"RA_OF_ASC_NODE":117.4973,"ARG_OF_PERICENTER":74.9489,"MEAN_ANOMALY":285.1669,"EPHEMERIS_TYPE":0,"CLASSIFICATION_TYPE":"U","NORAD_CAT_ID":64496,"ELEMENT_SET_NO":999,"REV_AT_EPOCH":4116,"BSTAR":0.00083690624,"MEAN_MOTION_DOT":0.00024503,"MEAN_MOTION_DDOT":0},{"OBJECT_NAME":"CZ-4B DEB","OBJECT_ID":"2010-051E","EPOCH":"2026-03-08T22:01:50.125728","MEAN_MOTION":15.23766972,"ECCENTRICITY":0.00561086,"INCLINATION":97.769,"RA_OF_ASC_NODE":240.5013,"ARG_OF_PERICENTER":301.1291,"MEAN_ANOMALY":58.4449,"EPHEMERIS_TYPE":0,"CLASSIFICATION_TYPE":"U","NORAD_CAT_ID":38184,"ELEMENT_SET_NO":999,"REV_AT_EPOCH":82066,"BSTAR":0.0024566319,"MEAN_MOTION_DOT":0.00062123,"MEAN_MOTION_DDOT":0}]
